BEIDOU-2 M4             
1 38251U 12018B   26167.04705756 -.00000071  00000+0  00000+0 0  9994
2 38251  55.6594 304.1282 0011298 275.8686  83.9863  1.86229400 95922
ARIRANG-3 (KOMPSAT-3)   
1 38338U 12025B   26167.14311248  .00000357  00000+0  80176-4 0  9991
2 38338  98.1170 124.6210 0006639 111.9419 248.2489 14.62205370751199
METOP-B                 
1 38771U 12049A   26167.13375508  .00000094  00000+0  62961-4 0  9996
2 38771  98.6505 218.6539 0002295  22.2139 337.9138 14.21432493713112
SJ-9A                   
1 38860U 12056A   26167.15405785  .00000825  00000+0  10125-3 0  9992
2 38860  97.6709 139.1429 0023970 260.2981  99.5527 14.85476786699437
COSMOS 2484 (RODNIK-S 6)
1 39059U 13001C   26167.18015527  .00000094  00000+0  60628-3 0  9999
2 39059  82.5019 222.5186 0026916  38.7587 321.5417 12.42939233608433
SARAL                   
1 39086U 13009A   26167.13311351  .00000070  00000+0  41697-4 0  9996
2 39086  98.5556 353.7137 0000761 316.6884  43.4240 14.32855707695453
STRAND-1                
1 39090U 13009E   26167.08130302  .00000218  00000+0  87619-4 0  9998
2 39090  98.3921 347.3429 0007671 229.0747 130.9776 14.37162720696905
BRITE-AUSTRIA           
1 39091U 13009F   26167.09370096  .00000142  00000+0  62862-4 0  9995
2 39091  98.3994 346.5565 0009106 240.1939 119.8342 14.36541737696891
GAOFEN-1                
1 39150U 13018A   26167.18203251  .00000677  00000+0  10428-3 0  9992
2 39150  97.9101 239.2701 0015691 269.9606  89.9806 14.76536817708093
NEE-01 PEGASO           
1 39151U 13018B   26167.12676225  .00002170  00000+0  21086-3 0  9994
2 39151  98.1216 311.2415 0013007 162.8121 197.3541 14.93655276710542
PROBA-V                 
1 39159U 13021A   26167.20545367  .00000046  00000+0  38241-4 0  9999
2 39159  98.3583 145.8605 0005099 125.7196 234.4459 14.23596789680973
ARIRANG-5 (KOMPSAT-5)   
1 39227U 13042A   26167.16846406  .00000866  00000+0  66253-4 0  9995
2 39227  97.6201 353.8833 0005281 122.0593 238.1146 15.04487529703708
GONETS-M 5              
1 39249U 13048A   26167.14895056  .00000043  00000+0  24029-3 0  9999
2 39249  82.4824 344.0298 0016026 212.7889 147.2198 12.42891978578754
GONETS-M 7              
1 39251U 13048C   26167.19242275 -.00000005  00000+0 -10409-3 0  9993
2 39251  82.4891 346.9244 0016828 214.0910 145.9090 12.42914624578719
FENGYUN 3C              
1 39260U 13052A   26167.19573272  .00000064  00000+0  53719-4 0  9997
2 39260  98.4986 141.1160 0015307  30.3656 329.8403 14.15754811658420
CASSIOPE                
1 39265U 13055A   26167.17794813  .00043437 -52905-6  47481-3 0  9997
2 39265  80.9153  67.9478 0293006  65.8201 297.3362 15.25103397667519
APRIZESAT 7             
1 39416U 13066A   26167.14767777  .00001072  00000+0  11149-3 0  9995
2 39416  97.7709 120.3825 0034916 212.7929 147.1122 14.91561995681070
ZACUBE-1 (TSHEPISOSAT)  
1 39417U 13066B   26167.14083162  .00002688  00000+0  21090-3 0  9995
2 39417  97.8082 129.4722 0040689 251.3313 108.3491 15.01184047680575
APRIZESAT 8             
1 39425U 13066K   26167.13253037  .00000824  00000+0  95187-4 0  9992
2 39425  97.8220 114.6150 0044468 290.1674  69.4762 14.87651062679518
TRITON-1                
1 39427U 13066M   26167.21511892  .00001354  00000+0  16757-3 0  9993
2 39427  97.8255  77.0451 0088446 237.1640 122.1035 14.81702993673947
